GAOFEN-11 01            
1 43585U 18063A   26168.62372086  .00018146  00000+0  26881-3 0  9997
2 43585  97.1291 235.5021 0003112 356.7358   3.3876 15.55308443440416
ICESAT-2                
1 43613U 18070A   26168.54792640  .00007983  00000+0  28967-3 0  9994
2 43613  92.0085 291.0762 0006037 105.9726 254.2189 15.28287923432519
HYSIS                   
1 43719U 18096A   26167.39938139  .00000529  00000+0  79264-4 0  9992
2 43719  97.9845 234.1538 0001924 106.8178 253.3244 14.78693317407307
KAZSTSAT                
1 43783U 18099AB  26168.03078765  .00001390  00000+0  11661-3 0  9991
2 43783  97.4268 199.9661 0008501  70.2179 289.9961 14.99865808411282
SAUDISAT 5A             
1 43831U 18102A   26168.62322073  .00004384  00000+0  16268-3 0  9993
2 43831  97.3066 230.1959 0011038 127.8016 232.4225 15.28051880415748
SAUDISAT 5B             
1 43833U 18102C   26168.64199163  .00004254  00000+0  15667-3 0  9997
2 43833  97.3172 233.2847 0011715 129.8998 230.3273 15.28308538415869
GAOFEN-10R              
1 44622U 19066A   26168.62608529  .00000876  00000+0  11431-3 0  9994
2 44622  98.0498 122.2085 0006707 126.2759 233.9074 14.83061520362447
CARTOSAT-3              
1 44804U 19081A   26168.61837163  .00005110  00000+0  24487-3 0  9991
2 44804  97.4304 230.4789 0013340 146.6531 213.5547 15.19288197363537
GAOFEN-12 01            
1 44819U 19082A   26168.62042013  .00000290  00000+0  44496-4 0  9998
2 44819  97.8100 174.9884 0002260  70.0757 290.0698 14.80458778354154
CSG-1                   
1 44873U 19092A   26168.59143296  .00000291  00000+0  43174-4 0  9993
2 44873  97.8888 352.1880 0001471  89.4915 270.6466 14.82153448351530
NEMO-HD                 
1 46277U 20061F   26168.58325258  .00008831  00000+0  19172-3 0  9998
2 46277  97.1916 230.5321 0002259  81.1384 279.0121 15.44600840322045
SENTINEL-6A             
1 46984U 20086A   26168.31971128 -.00000070  00000+0 -39565-4 0  9992
2 46984  66.0395 134.7770 0007942 270.2239  89.7866 12.80929937260347
CAS500-1                
1 47932U 21022A   26168.58964502  .00005046  00000+0  23646-3 0  9992
2 47932  97.3900  63.8350 0003374 299.0158  61.0739 15.20136099290824
GAOFEN-12 02            
1 48079U 21026A   26168.63152495  .00000265  00000+0  41772-4 0  9994
2 48079  97.9921 166.8103 0003704 219.9687 140.1252 14.80296431281822
PLEIADES NEO 3          
1 48268U 21034A   26168.59080916  .00001194  00000+0  15828-3 0  9990
2 48268  97.8936 243.3519 0001405  87.6110 272.5264 14.81676334277717
PLEIADES NEO 4          
1 49070U 21073E   26168.55703123  .00000829  00000+0  11199-3 0  9994
2 49070  97.8939 243.3142 0001353  86.5425 273.5943 14.81676576261427
LANDSAT 9               
1 49260U 21088A   26168.12785192  .00000288  00000+0  74060-4 0  9996
2 49260  98.2281 238.3060 0001337  85.7741 274.3610 14.57097109250992
CSG-2                   
1 51444U 22008A   26168.62516852  .00000244  00000+0  37173-4 0  9992
2 51444  97.8878 352.2161 0001474  85.0312 275.1069 14.82157217236652
GAOFEN-12 03            
1 52912U 22069A   26168.59391207  .00001074  00000+0  14855-3 0  9994
2 52912  97.8283  56.4542 0002074 101.7700 258.3745 14.80036577214678
SWOT                    
1 54754U 22173A   26168.55988788  .00000002  00000+0  29656-5 0  9995
2 54754  77.6106  34.8071 0000245  87.4580 272.6599 14.00169669179201
GAOFEN-12 04            
1 57654U 23123A   26168.61053666  .00000765  00000+0  10739-3 0  9994
2 57654  97.9122  86.6223 0001790  82.8088 277.3328 14.80229388152697
PARS 1                  
1 59065U 24039Q   26168.63820417  .00009242  00000+0  19269-3 0  9993
2 59065  97.4824 149.5722 0011517 110.2569 249.9919 15.45731718128714
RESURS-P 4              
1 59371U 24061A   26168.58971609  .00002449  00000+0  81408-4 0  9999
2 59371  97.2755 116.4815 0002205 126.1964 233.9482 15.32133085123824
LEGION 1                
1 59625U 24081A   26168.55688487  .00002958  00000+0  15446-3 0  9992
2 59625  97.5018 246.4097 0009450  16.6685 343.4857 15.16668974117591
LEGION 2                
1 59626U 24081B   26168.52089122  .00002891  00000+0  15105-3 0  9999
2 59626  97.5019 246.4717 0010717 342.4783  17.6079 15.16647820117592
ALOS-4 (DAICHI-4)       
1 60182U 24123A   26168.56431691  .00001188  00000+0  16592-3 0  9990
2 60182  97.9250 265.7329 0001646  97.6775 262.4624 14.79467837105933
LEGION 3                
1 60452U 24146A   26168.52629795  .00002874  00000+0  16042-3 0  9998
2 60452  45.0025  28.7364 0007683 172.2561 187.8437 15.16039102102079
LEGION 4                
1 60453U 24146B   26168.33171305  .00003451  00000+0  18970-3 0  9991
2 60453  45.0009 121.6902 0013749 309.2630  50.7028 15.16031422100891
SENTINEL-2C             
1 60989U 24157A   26168.10261551  .00000094  00000+0  52317-4 0  9999
2 60989  98.5692 242.8858 0001022  81.6197 278.5102 14.30817792 92971
IONOSFERA-M 1           
1 61735U 24199A   26168.61574749  .00000042  00000+0  38486-4 0  9991
2 61735  98.7172  41.7834 0001959 109.6860 250.4530 14.22754432127765
