OBJECT_NAME,OBJECT_ID,EPOCH,MEAN_MOTION,ECCENTRICITY,INCLINATION,RA_OF_ASC_NODE,ARG_OF_PERICENTER,MEAN_ANOMALY,EPHEMERIS_TYPE,CLASSIFICATION_TYPE,NORAD_CAT_ID,ELEMENT_SET_NO,REV_AT_EPOCH,BSTAR,MEAN_MOTION_DOT,MEAN_MOTION_DDOT
GAOFEN-11 01,2018-063A,2026-06-17T14:58:09.482304,15.55308443,.00031123,97.1291,235.5021,356.7358,3.3876,0,U,43585,999,44041,.26881264E-3,.18146E-3,0
ICESAT-2,2018-070A,2026-06-17T13:09:00.840960,15.28287923,.00060376,92.0085,291.0762,105.9726,254.2189,0,U,43613,999,43251,.28966776E-3,.7983E-4,0
HYSIS,2018-096A,2026-06-16T09:35:06.552096,14.78693317,.0001924,97.9845,234.1538,106.8178,253.3244,0,U,43719,999,40730,.79264296E-4,.529E-5,0
KAZSTSAT,2018-099AB,2026-06-17T00:44:20.052960,14.99865808,.00085012,97.4268,199.9661,70.2179,289.9961,0,U,43783,999,41128,.11661491E-3,.139E-4,0
SAUDISAT 5A,2018-102A,2026-06-17T14:57:26.271072,15.28051880,.00110382,97.3066,230.1959,127.8016,232.4225,0,U,43831,999,41574,.16268169E-3,.4384E-4,0
SAUDISAT 5B,2018-102C,2026-06-17T15:24:28.076832,15.28308538,.00117155,97.3172,233.2847,129.8998,230.3273,0,U,43833,999,41586,.15666909E-3,.4254E-4,0
GAOFEN-10R,2019-066A,2026-06-17T15:01:33.769056,14.83061520,.0006707,98.0498,122.2085,126.2759,233.9074,0,U,44622,999,36244,.11430618E-3,.876E-5,0
CARTOSAT-3,2019-081A,2026-06-17T14:50:27.308832,15.19288197,.00133409,97.4304,230.4789,146.6531,213.5547,0,U,44804,999,36353,.24486924E-3,.511E-4,0
GAOFEN-12 01,2019-082A,2026-06-17T14:53:24.299232,14.80458778,.00022606,97.8100,174.9884,70.0757,290.0698,0,U,44819,999,35415,.44496371E-4,.29E-5,0
CSG-1,2019-092A,2026-06-17T14:11:39.807744,14.82153448,.00014712,97.8888,352.1880,89.4915,270.6466,0,U,44873,999,35153,.43173534E-4,.291E-5,0
NEMO-HD,2020-061F,2026-06-17T13:59:53.022912,15.44600840,.00022598,97.1916,230.5321,81.1384,279.0121,0,U,46277,999,32204,.19171607E-3,.8831E-4,0
SENTINEL-6A,2020-086A,2026-06-17T07:40:23.054592,12.80929937,.00079421,66.0395,134.7770,270.2239,89.7866,0,U,46984,999,26034,-.39564604E-4,-.7E-6,0
CAS500-1,2021-022A,2026-06-17T14:09:05.329728,15.20136099,.00033748,97.3900,63.8350,299.0158,61.0739,0,U,47932,999,29082,.23646175E-3,.5046E-4,0
GAOFEN-12 02,2021-026A,2026-06-17T15:09:23.755680,14.80296431,.00037049,97.9921,166.8103,219.9687,140.1252,0,U,48079,999,28182,.41771825E-4,.265E-5,0
PLEIADES NEO 3,2021-034A,2026-06-17T14:10:45.911424,14.81676334,.00014051,97.8936,243.3519,87.6110,272.5264,0,U,48268,999,27771,.15827921E-3,.1194E-4,0
PLEIADES NEO 4,2021-073E,2026-06-17T13:22:07.498272,14.81676576,.00013538,97.8939,243.3142,86.5425,273.5943,0,U,49070,999,26142,.11199408E-3,.829E-5,0
LANDSAT 9,2021-088A,2026-06-17T03:04:06.405888,14.57097109,.00013373,98.2281,238.3060,85.7741,274.3610,0,U,49260,999,25099,.74059866E-4,.288E-5,0
CSG-2,2022-008A,2026-06-17T15:00:14.560128,14.82157217,.00014741,97.8878,352.2161,85.0312,275.1069,0,U,51444,999,23665,.37172952E-4,.244E-5,0
GAOFEN-12 03,2022-069A,2026-06-17T14:15:14.002848,14.80036577,.00020747,97.8283,56.4542,101.7700,258.3745,0,U,52912,999,21467,.14854714E-3,.1074E-4,0
SWOT,2022-173A,2026-06-17T13:26:14.312832,14.00169669,.00002459,77.6106,34.8071,87.4580,272.6599,0,U,54754,999,17920,.2965649E-5,.2E-7,0
GAOFEN-12 04,2023-123A,2026-06-17T14:39:10.367424,14.80229388,.00017902,97.9122,86.6223,82.8088,277.3328,0,U,57654,999,15269,.10739268E-3,.765E-5,0
PARS 1,2024-039Q,2026-06-17T15:19:00.840288,15.45731718,.00115179,97.4824,149.5722,110.2569,249.9919,0,U,59065,999,12871,.19268615E-3,.9242E-4,0
RESURS-P 4,2024-061A,2026-06-17T14:09:11.470176,15.32133085,.00022056,97.2755,116.4815,126.1964,233.9482,0,U,59371,999,12382,.81408263E-4,.2449E-4,0
LEGION 1,2024-081A,2026-06-17T13:21:54.852768,15.16668974,.00094507,97.5018,246.4097,16.6685,343.4857,0,U,59625,999,11759,.15445505E-3,.2958E-4,0
LEGION 2,2024-081B,2026-06-17T12:30:05.001408,15.16647820,.00107174,97.5019,246.4717,342.4783,17.6079,0,U,59626,999,11759,.15104555E-3,.2891E-4,0
ALOS-4 (DAICHI-4),2024-123A,2026-06-17T13:32:36.981024,14.79467837,.0001646,97.9250,265.7329,97.6775,262.4624,0,U,60182,999,10593,.16592224E-3,.1188E-4,0
LEGION 3,2024-146A,2026-06-17T12:37:52.142880,15.16039102,.00076832,45.0025,28.7364,172.2561,187.8437,0,U,60452,999,10207,.1604155E-3,.2874E-4,0
LEGION 4,2024-146B,2026-06-17T07:57:40.007520,15.16031422,.00137493,45.0009,121.6902,309.2630,50.7028,0,U,60453,999,10089,.18969635E-3,.3451E-4,0
SENTINEL-2C,2024-157A,2026-06-17T02:27:45.980064,14.30817792,.0001022,98.5692,242.8858,81.6197,278.5102,0,U,60989,999,9297,.52316882E-4,.94E-6,0
IONOSFERA-M 1,2024-199A,2026-06-17T14:46:40.583136,14.22754432,.00019598,98.7172,41.7834,109.6860,250.4530,0,U,61735,999,12776,.38486226E-4,.42E-6,0
